[{"OBJECT_NAME":"SPIP","OBJECT_ID":"2023-174AU","EPOCH":"2026-03-09T22:52:46.383168","MEAN_MOTION":15.26695413,"ECCENTRICITY":0.00100427,"INCLINATION":97.3901,"RA_OF_ASC_NODE":146.4534,"ARG_OF_PERICENTER":168.1112,"MEAN_ANOMALY":192.0366,"EPHEMERIS_TYPE":0,"CLASSIFICATION_TYPE":"U","NORAD_CAT_ID":58298,"ELEMENT_SET_NO":999,"REV_AT_EPOCH":12963,"BSTAR":0.00025731582,"MEAN_MOTION_DOT":6.692e-5,"MEAN_MOTION_DDOT":0},{"OBJECT_NAME":"ICUBE-1","OBJECT_ID":"2013-066S","EPOCH":"2026-03-09T21:15:50.265216","MEAN_MOTION":15.23110621,"ECCENTRICITY":0.00159988,"INCLINATION":97.5653,"RA_OF_ASC_NODE":53.5484,"ARG_OF_PERICENTER":327.1969,"MEAN_ANOMALY":32.8272,"EPHEMERIS_TYPE":0,"CLASSIFICATION_TYPE":"U","NORAD_CAT_ID":39432,"ELEMENT_SET_NO":999,"REV_AT_EPOCH":66928,"BSTAR":0.00081477483,"MEAN_MOTION_DOT":0.00019249,"MEAN_MOTION_DDOT":0}]
